{
    "links": {
        "self": "http://www.neowsapp.com/rest/v1/neo/3736001?api_key=iIulBulltgU6a56xZRHN4H3l9WmuAYTsLGpBGhQ2"
    },
    "id": "3736001",
    "neo_reference_id": "3736001",
    "name": "(2015 XM55)",
    "designation": "2015 XM55",
    "nasa_jpl_url": "http://ssd.jpl.nasa.gov/sbdb.cgi?sstr=3736001",
    "absolute_magnitude_h": 23.9,
    "estimated_diameter": {
        "kilometers": {
            "estimated_diameter_min": 0.04411182,
            "estimated_diameter_max": 0.0986370281
        },
        "meters": {
            "estimated_diameter_min": 44.1118199997,
            "estimated_diameter_max": 98.6370281305
        },
        "miles": {
            "estimated_diameter_min": 0.0274098057,
            "estimated_diameter_max": 0.0612901888
        },
        "feet": {
            "estimated_diameter_min": 144.7238235278,
            "estimated_diameter_max": 323.6123073718
        }
    },
    "is_potentially_hazardous_asteroid": false,
    "close_approach_data": [
        {
            "close_approach_date": "2015-11-11",
            "close_approach_date_full": "2015-Nov-11 04:32",
            "epoch_date_close_approach": 1447216320000,
            "relative_velocity": {
                "kilometers_per_second": "7.5344861478",
                "kilometers_per_hour": "27124.1501322542",
                "miles_per_hour": "16853.8920641221"
            },
            "miss_distance": {
                "astronomical": "0.1470016535",
                "lunar": "57.1836432115",
                "kilometers": "21991134.250078045",
                "miles": "13664657.184425221"
            },
            "orbiting_body": "Earth"
        }
    ],
    "orbital_data": {
        "orbit_id": "4",
        "orbit_determination_date": "2017-04-06 08:30:11",
        "first_observation_date": "2015-12-04",
        "last_observation_date": "2015-12-11",
        "data_arc_in_days": 7,
        "observations_used": 25,
        "orbit_uncertainty": "9",
        "minimum_orbit_intersection": ".146198",
        "jupiter_tisserand_invariant": "3.211",
        "epoch_osculation": "2457362.5",
        "eccentricity": ".5556649097533507",
        "semi_major_axis": "2.513389309515034",
        "inclination": "9.331796026600729",
        "ascending_node_longitude": "248.9688847617661",
        "orbital_period": "1455.419107080538",
        "perihelion_distance": "1.116787065668326",
        "perihelion_argument": "148.9752297007534",
        "aphelion_distance": "3.909991553361741",
        "perihelion_time": "2457328.790836098703",
        "mean_anomaly": "8.338009955640493",
        "mean_motion": ".2473514317962563",
        "equinox": "J2000",
        "orbit_class": {
            "orbit_class_type": "AMO",
            "orbit_class_description": "Near-Earth asteroid orbits similar to that of 1221 Amor",
            "orbit_class_range": "1.017 AU < q (perihelion) < 1.3 AU"
        }
    },
    "is_sentry_object": false
}